[{"OBJECT_NAME":"REAL","OBJECT_ID":"2025-154G","EPOCH":"2026-03-09T17:20:09.670560","MEAN_MOTION":15.28408058,"ECCENTRICITY":0.00018528,"INCLINATION":97.4133,"RA_OF_ASC_NODE":137.2581,"ARG_OF_PERICENTER":118.5876,"MEAN_ANOMALY":241.555,"EPHEMERIS_TYPE":0,"CLASSIFICATION_TYPE":"U","NORAD_CAT_ID":64875,"ELEMENT_SET_NO":999,"REV_AT_EPOCH":3483,"BSTAR":0.0008290401,"MEAN_MOTION_DOT":0.00022901,"MEAN_MOTION_DDOT":0},{"OBJECT_NAME":"EPSILON R\/B","OBJECT_ID":"2016-080B","EPOCH":"2026-03-09T11:28:15.013056","MEAN_MOTION":5.88967281,"ECCENTRICITY":0.4947392,"INCLINATION":31.2342,"RA_OF_ASC_NODE":249.598,"ARG_OF_PERICENTER":285.2128,"MEAN_ANOMALY":26.8642,"EPHEMERIS_TYPE":0,"CLASSIFICATION_TYPE":"U","NORAD_CAT_ID":41897,"ELEMENT_SET_NO":999,"REV_AT_EPOCH":12190,"BSTAR":0.00084888566,"MEAN_MOTION_DOT":0.00149389,"MEAN_MOTION_DDOT":3.729e-8}]
